[{"OBJECT_NAME":"IRIDIUM 152","OBJECT_ID":"2018-047D","EPOCH":"2026-04-05T14:41:46.156992","MEAN_MOTION":14.34217629,"ECCENTRICITY":0.0002002,"INCLINATION":86.3932,"RA_OF_ASC_NODE":118.687,"ARG_OF_PERICENTER":91.2434,"MEAN_ANOMALY":268.8991,"EPHEMERIS_TYPE":0,"CLASSIFICATION_TYPE":"U","NORAD_CAT_ID":43479,"ELEMENT_SET_NO":999,"REV_AT_EPOCH":41208,"BSTAR":-3.8141e-6,"MEAN_MOTION_DOT":9.0e-8,"MEAN_MOTION_DDOT":0},{"OBJECT_NAME":"IRIDIUM 147","OBJECT_ID":"2018-047E","EPOCH":"2026-04-05T18:11:50.243424","MEAN_MOTION":14.34217902,"ECCENTRICITY":0.0002382,"INCLINATION":86.393,"RA_OF_ASC_NODE":118.6301,"ARG_OF_PERICENTER":92.5034,"MEAN_ANOMALY":267.6434,"EPHEMERIS_TYPE":0,"CLASSIFICATION_TYPE":"U","NORAD_CAT_ID":43480,"ELEMENT_SET_NO":999,"REV_AT_EPOCH":41210,"BSTAR":6.4385e-6,"MEAN_MOTION_DOT":3.8e-7,"MEAN_MOTION_DDOT":0},{"OBJECT_NAME":"IRIDIUM 110","OBJECT_ID":"2018-047F","EPOCH":"2026-04-05T18:20:58.165440","MEAN_MOTION":14.34217661,"ECCENTRICITY":0.0001978,"INCLINATION":86.3932,"RA_OF_ASC_NODE":118.7174,"ARG_OF_PERICENTER":85.751,"MEAN_ANOMALY":274.3912,"EPHEMERIS_TYPE":0,"CLASSIFICATION_TYPE":"U","NORAD_CAT_ID":43481,"ELEMENT_SET_NO":999,"REV_AT_EPOCH":41209,"BSTAR":-4.7102e-6,"MEAN_MOTION_DOT":7.0e-8,"MEAN_MOTION_DDOT":0},{"OBJECT_NAME":"IRIDIUM 162","OBJECT_ID":"2018-047G","EPOCH":"2026-04-05T18:45:02.934144","MEAN_MOTION":14.43277441,"ECCENTRICITY":0.000225,"INCLINATION":86.4453,"RA_OF_ASC_NODE":118.648,"ARG_OF_PERICENTER":94.8584,"MEAN_ANOMALY":265.2873,"EPHEMERIS_TYPE":0,"CLASSIFICATION_TYPE":"U","NORAD_CAT_ID":43482,"ELEMENT_SET_NO":999,"REV_AT_EPOCH":41468,"BSTAR":5.3876e-5,"MEAN_MOTION_DOT":2.01e-6,"MEAN_MOTION_DDOT":0},{"OBJECT_NAME":"IRIDIUM 160","OBJECT_ID":"2018-061A","EPOCH":"2026-04-05T12:01:34.381632","MEAN_MOTION":14.34217917,"ECCENTRICITY":0.00022124,"INCLINATION":86.3914,"RA_OF_ASC_NODE":87.1923,"ARG_OF_PERICENTER":86.408,"MEAN_ANOMALY":273.7369,"EPHEMERIS_TYPE":0,"CLASSIFICATION_TYPE":"U","NORAD_CAT_ID":43569,"ELEMENT_SET_NO":999,"REV_AT_EPOCH":40295,"BSTAR":7.412919e-6,"MEAN_MOTION_DOT":4.1e-7,"MEAN_MOTION_DDOT":0},{"OBJECT_NAME":"IRIDIUM 166","OBJECT_ID":"2018-061B","EPOCH":"2026-04-05T10:57:38.473056","MEAN_MOTION":14.34217603,"ECCENTRICITY":0.00022405,"INCLINATION":86.3911,"RA_OF_ASC_NODE":87.1625,"ARG_OF_PERICENTER":89.853,"MEAN_ANOMALY":270.2923,"EPHEMERIS_TYPE":0,"CLASSIFICATION_TYPE":"U","NORAD_CAT_ID":43570,"ELEMENT_SET_NO":999,"REV_AT_EPOCH":40297,"BSTAR":-1.716698e-6,"MEAN_MOTION_DOT":1.5e-7,"MEAN_MOTION_DDOT":0},{"OBJECT_NAME":"IRIDIUM 158","OBJECT_ID":"2018-061C","EPOCH":"2026-04-05T11:52:26.401728","MEAN_MOTION":14.34217339,"ECCENTRICITY":0.00020106,"INCLINATION":86.3911,"RA_OF_ASC_NODE":87.1565,"ARG_OF_PERICENTER":92.1965,"MEAN_ANOMALY":267.9461,"EPHEMERIS_TYPE":0,"CLASSIFICATION_TYPE":"U","NORAD_CAT_ID":43571,"ELEMENT_SET_NO":999,"REV_AT_EPOCH":40294,"BSTAR":-1.1096759e-5,"MEAN_MOTION_DOT":-1.1e-7,"MEAN_MOTION_DDOT":0},{"OBJECT_NAME":"IRIDIUM 165","OBJECT_ID":"2018-061D","EPOCH":"2026-04-05T17:30:22.376160","MEAN_MOTION":14.34217304,"ECCENTRICITY":0.0002256,"INCLINATION":86.3914,"RA_OF_ASC_NODE":87.1033,"ARG_OF_PERICENTER":89.7013,"MEAN_ANOMALY":270.4442,"EPHEMERIS_TYPE":0,"CLASSIFICATION_TYPE":"U","NORAD_CAT_ID":43572,"ELEMENT_SET_NO":999,"REV_AT_EPOCH":40300,"BSTAR":-1.3948e-5,"MEAN_MOTION_DOT":-1.9e-7,"MEAN_MOTION_DDOT":0},{"OBJECT_NAME":"IRIDIUM 155","OBJECT_ID":"2018-061E","EPOCH":"2026-04-05T11:34:10.372800","MEAN_MOTION":14.3421756,"ECCENTRICITY":0.00021487,"INCLINATION":86.3909,"RA_OF_ASC_NODE":87.0794,"ARG_OF_PERICENTER":93.4672,"MEAN_ANOMALY":266.677,"EPHEMERIS_TYPE":0,"CLASSIFICATION_TYPE":"U","NORAD_CAT_ID":43573,"ELEMENT_SET_NO":999,"REV_AT_EPOCH":40293,"BSTAR":-5.205806e-6,"MEAN_MOTION_DOT":5.0e-8,"MEAN_MOTION_DDOT":0},{"OBJECT_NAME":"IRIDIUM 154","OBJECT_ID":"2018-061F","EPOCH":"2026-04-05T09:26:18.440736","MEAN_MOTION":14.34217682,"ECCENTRICITY":0.00024202,"INCLINATION":86.3913,"RA_OF_ASC_NODE":87.2464,"ARG_OF_PERICENTER":89.3085,"MEAN_ANOMALY":270.8388,"EPHEMERIS_TYPE":0,"CLASSIFICATION_TYPE":"U","NORAD_CAT_ID":43574,"ELEMENT_SET_NO":999,"REV_AT_EPOCH":40297,"BSTAR":-4.313074e-6,"MEAN_MOTION_DOT":8.0e-8,"MEAN_MOTION_DDOT":0},{"OBJECT_NAME":"IRIDIUM 163","OBJECT_ID":"2018-061G","EPOCH":"2026-04-05T12:19:50.372544","MEAN_MOTION":14.34217532,"ECCENTRICITY":0.0002032,"INCLINATION":86.3911,"RA_OF_ASC_NODE":87.1137,"ARG_OF_PERICENTER":90.3334,"MEAN_ANOMALY":269.8095,"EPHEMERIS_TYPE":0,"CLASSIFICATION_TYPE":"U","NORAD_CAT_ID":43575,"ELEMENT_SET_NO":999,"REV_AT_EPOCH":40296,"BSTAR":-1.673011e-6,"MEAN_MOTION_DOT":1.5e-7,"MEAN_MOTION_DDOT":0},{"OBJECT_NAME":"IRIDIUM 156","OBJECT_ID":"2018-061H","EPOCH":"2026-04-05T11:43:18.247296","MEAN_MOTION":14.34217491,"ECCENTRICITY":0.00022781,"INCLINATION":86.3909,"RA_OF_ASC_NODE":87.1314,"ARG_OF_PERICENTER":93.7096,"MEAN_ANOMALY":266.4361,"EPHEMERIS_TYPE":0,"CLASSIFICATION_TYPE":"U","NORAD_CAT_ID":43576,"ELEMENT_SET_NO":999,"REV_AT_EPOCH":40295,"BSTAR":3.188304e-5,"MEAN_MOTION_DOT":1.09e-6,"MEAN_MOTION_DDOT":0},{"OBJECT_NAME":"IRIDIUM 164","OBJECT_ID":"2018-061J","EPOCH":"2026-04-05T21:18:42.401664","MEAN_MOTION":14.34217353,"ECCENTRICITY":0.000227,"INCLINATION":86.3911,"RA_OF_ASC_NODE":87.0036,"ARG_OF_PERICENTER":85.8945,"MEAN_ANOMALY":274.251,"EPHEMERIS_TYPE":0,"CLASSIFICATION_TYPE":"U","NORAD_CAT_ID":43577,"ELEMENT_SET_NO":999,"REV_AT_EPOCH":40305,"BSTAR":-1.9886e-5,"MEAN_MOTION_DOT":-3.6e-7,"MEAN_MOTION_DDOT":0},{"OBJECT_NAME":"IRIDIUM 159","OBJECT_ID":"2018-061K","EPOCH":"2026-04-05T12:10:42.324384","MEAN_MOTION":14.34217913,"ECCENTRICITY":0.00021349,"INCLINATION":86.3911,"RA_OF_ASC_NODE":87.101,"ARG_OF_PERICENTER":86.256,"MEAN_ANOMALY":273.888,"EPHEMERIS_TYPE":0,"CLASSIFICATION_TYPE":"U","NORAD_CAT_ID":43578,"ELEMENT_SET_NO":999,"REV_AT_EPOCH":40296,"BSTAR":5.132176e-6,"MEAN_MOTION_DOT":3.4e-7,"MEAN_MOTION_DDOT":0},{"OBJECT_NAME":"IRIDIUM 180","OBJECT_ID":"2019-002A","EPOCH":"2026-04-05T20:32:18.845952","MEAN_MOTION":14.34218129,"ECCENTRICITY":0.0002144,"INCLINATION":86.4016,"RA_OF_ASC_NODE":23.8167,"ARG_OF_PERICENTER":82.0149,"MEAN_ANOMALY":278.129,"EPHEMERIS_TYPE":0,"CLASSIFICATION_TYPE":"U","NORAD_CAT_ID":43922,"ELEMENT_SET_NO":999,"REV_AT_EPOCH":37862,"BSTAR":6.2387e-5,"MEAN_MOTION_DOT":1.94e-6,"MEAN_MOTION_DDOT":0},{"OBJECT_NAME":"IRIDIUM 176","OBJECT_ID":"2019-002B","EPOCH":"2026-04-05T18:33:39.924000","MEAN_MOTION":14.72255723,"ECCENTRICITY":0.0002675,"INCLINATION":86.6136,"RA_OF_ASC_NODE":23.8047,"ARG_OF_PERICENTER":85.3661,"MEAN_ANOMALY":274.7862,"EPHEMERIS_TYPE":0,"CLASSIFICATION_TYPE":"U","NORAD_CAT_ID":43923,"ELEMENT_SET_NO":999,"REV_AT_EPOCH":38859,"BSTAR":0.00022048,"MEAN_MOTION_DOT":1.415e-5,"MEAN_MOTION_DDOT":0},{"OBJECT_NAME":"IRIDIUM 168","OBJECT_ID":"2019-002C","EPOCH":"2026-04-05T20:23:10.781376","MEAN_MOTION":14.34217179,"ECCENTRICITY":0.0002154,"INCLINATION":86.4017,"RA_OF_ASC_NODE":23.8945,"ARG_OF_PERICENTER":85.734,"MEAN_ANOMALY":274.4102,"EPHEMERIS_TYPE":0,"CLASSIFICATION_TYPE":"U","NORAD_CAT_ID":43924,"ELEMENT_SET_NO":999,"REV_AT_EPOCH":37860,"BSTAR":0.00013324,"MEAN_MOTION_DOT":3.93e-6,"MEAN_MOTION_DDOT":0}]
