IRIDIUM 152             
1 43479U 18047D   26095.61233978  .00000009  00000+0 -38141-5 0  9999
2 43479  86.3932 118.6870 0002002  91.2434 268.8991 14.34217629412085
IRIDIUM 147             
1 43480U 18047E   26095.75822041  .00000038  00000+0  64385-5 0  9991
2 43480  86.3930 118.6301 0002382  92.5034 267.6434 14.34217902412101
IRIDIUM 110             
1 43481U 18047F   26095.76456210  .00000007  00000+0 -47102-5 0  9999
2 43481  86.3932 118.7174 0001978  85.7510 274.3912 14.34217661412092
IRIDIUM 162             
1 43482U 18047G   26095.78128396  .00000201  00000+0  53876-4 0  9992
2 43482  86.4453 118.6480 0002250  94.8584 265.2873 14.43277441414681
IRIDIUM 160             
1 43569U 18061A   26095.50109238  .00000041  00000+0  74129-5 0  9995
2 43569  86.3914  87.1923 0002212  86.4080 273.7369 14.34217917402959
IRIDIUM 166             
1 43570U 18061B   26095.45669529  .00000015  00000+0 -17167-5 0  9996
2 43570  86.3911  87.1625 0002240  89.8530 270.2923 14.34217603402977
IRIDIUM 158             
1 43571U 18061C   26095.49475002 -.00000011  00000+0 -11097-4 0  9994
2 43571  86.3911  87.1565 0002010  92.1965 267.9461 14.34217339402948
IRIDIUM 165             
1 43572U 18061D   26095.72942565 -.00000019  00000+0 -13948-4 0  9999
2 43572  86.3914  87.1033 0002256  89.7013 270.4442 14.34217304403008
IRIDIUM 155             
1 43573U 18061E   26095.48206450  .00000005  00000+0 -52058-5 0  9999
2 43573  86.3909  87.0794 0002148  93.4672 266.6770 14.34217560402935
IRIDIUM 154             
1 43574U 18061F   26095.39326899  .00000008  00000+0 -43131-5 0  9995
2 43574  86.3913  87.2464 0002420  89.3085 270.8388 14.34217682402973
IRIDIUM 163             
1 43575U 18061G   26095.51377746  .00000015  00000+0 -16730-5 0  9990
2 43575  86.3911  87.1137 0002032  90.3334 269.8095 14.34217532402962
IRIDIUM 156             
1 43576U 18061H   26095.48840564  .00000109  00000+0  31883-4 0  9998
2 43576  86.3909  87.1314 0002278  93.7096 266.4361 14.34217491402953
IRIDIUM 164             
1 43577U 18061J   26095.88799076 -.00000036  00000+0 -19886-4 0  9994
2 43577  86.3911  87.0036 0002270  85.8945 274.2510 14.34217353403056
IRIDIUM 159             
1 43578U 18061K   26095.50743431  .00000034  00000+0  51322-5 0  9996
2 43578  86.3911  87.1010 0002134  86.2560 273.8880 14.34217913402963
IRIDIUM 180             
1 43922U 19002A   26095.85577368  .00000194  00000+0  62387-4 0  9996
2 43922  86.4016  23.8167 0002144  82.0149 278.1290 14.34218129378629
IRIDIUM 176             
1 43923U 19002B   26095.77337875  .00001415  00000+0  22048-3 0  9991
2 43923  86.6136  23.8047 0002675  85.3661 274.7862 14.72255723388593
IRIDIUM 168             
1 43924U 19002C   26095.84943034  .00000393  00000+0  13324-3 0  9991
2 43924  86.4017  23.8945 0002154  85.7340 274.4102 14.34217179378603
